{
    "links": {
        "self": "http://www.neowsapp.com/rest/v1/neo/3799761?api_key=iIulBulltgU6a56xZRHN4H3l9WmuAYTsLGpBGhQ2"
    },
    "id": "3799761",
    "neo_reference_id": "3799761",
    "name": "(2018 DB4)",
    "designation": "2018 DB4",
    "nasa_jpl_url": "http://ssd.jpl.nasa.gov/sbdb.cgi?sstr=3799761",
    "absolute_magnitude_h": 24.5,
    "estimated_diameter": {
        "kilometers": {
            "estimated_diameter_min": 0.0334622374,
            "estimated_diameter_max": 0.0748238376
        },
        "meters": {
            "estimated_diameter_min": 33.4622374455,
            "estimated_diameter_max": 74.8238376074
        },
        "miles": {
            "estimated_diameter_min": 0.0207924639,
            "estimated_diameter_max": 0.0464933628
        },
        "feet": {
            "estimated_diameter_min": 109.7842471007,
            "estimated_diameter_max": 245.4850393757
        }
    },
    "is_potentially_hazardous_asteroid": false,
    "close_approach_data": [
        {
            "close_approach_date": "2018-03-11",
            "close_approach_date_full": "2018-Mar-11 20:41",
            "epoch_date_close_approach": 1520800860000,
            "relative_velocity": {
                "kilometers_per_second": "8.7091178661",
                "kilometers_per_hour": "31352.8243179895",
                "miles_per_hour": "19481.4257546974"
            },
            "miss_distance": {
                "astronomical": "0.0632950826",
                "lunar": "24.6217871314",
                "kilometers": "9468809.538434062",
                "miles": "5883645.4189195756"
            },
            "orbiting_body": "Earth"
        }
    ],
    "orbital_data": {
        "orbit_id": "5",
        "orbit_determination_date": "2018-03-21 09:28:11",
        "first_observation_date": "2018-02-26",
        "last_observation_date": "2018-03-20",
        "data_arc_in_days": 22,
        "observations_used": 26,
        "orbit_uncertainty": "8",
        "minimum_orbit_intersection": ".0247432",
        "jupiter_tisserand_invariant": "4.129",
        "epoch_osculation": "2458182.5",
        "eccentricity": ".4122915437342696",
        "semi_major_axis": "1.680651539497966",
        "inclination": "4.266643332672587",
        "ascending_node_longitude": "165.0408808795337",
        "orbital_period": "795.8201722660019",
        "perihelion_distance": ".9877331217989731",
        "perihelion_argument": "38.52988006838898",
        "aphelion_distance": "2.37356995719696",
        "perihelion_time": "2458214.822339355977",
        "mean_anomaly": "345.3785533796919",
        "mean_motion": ".4523635018888041",
        "equinox": "J2000",
        "orbit_class": {
            "orbit_class_type": "APO",
            "orbit_class_description": "Near-Earth asteroid orbits which cross the Earth’s orbit similar to that of 1862 Apollo",
            "orbit_class_range": "a (semi-major axis) > 1.0 AU; q (perihelion) < 1.017 AU"
        }
    },
    "is_sentry_object": false
}